SL-16 R/B               
1 22566U 93016B   26043.05338359 -.00000226  00000+0 -91748-4 0  9995
2 22566  71.0058 269.0285 0010475 348.8747  11.2142 14.15302762698548
COSMOS 2242             
1 22626U 93024A   26043.09366426  .00002550  00000+0  22196-3 0  9991
2 22626  82.5191 291.1988 0017426  35.7785 324.4601 14.96443305776569
SL-16 R/B               
1 22803U 93059B   26043.13820903 -.00000058  00000+0 -46830-5 0  9992
2 22803  70.9890  65.0108 0019476 251.8227 108.0776 14.17228266675910
ARIANE 40 R/B           
1 22830U 93061H   26043.14049918  .00000212  00000+0  93620-4 0  9993
2 22830  98.4972 112.5253 0010580   6.3248 353.8068 14.32847312690443
COSMOS 2278             
1 23087U 94023A   26042.92488745 -.00000020  00000+0  14357-4 0  9995
2 23087  71.0500 229.0010 0006742  62.8021 297.3788 14.14363439641167
SL-16 R/B               
1 23088U 94023B   26043.19513013  .00000195  00000+0  12535-3 0  9990
2 23088  70.9995 124.4312 0004544 309.6933  50.3788 14.15004636642484
SL-16 R/B               
1 23343U 94074B   26043.08408501  .00000547  00000+0  80048-4 0  9999
2 23343  97.7144  74.9350 0005472 314.0240  67.8490 14.79377114683464
SL-16 R/B               
1 23405U 94077B   26043.11602844  .00000289  00000+0  17193-3 0  9994
2 23405  70.9821  46.2904 0004164 233.0299 127.0442 14.15559027612616
ARIANE 40+ R/B          
1 23561U 95021B   26043.16636405  .00000319  00000+0  11561-3 0  9999
2 23561  98.4551 114.9880 0006266 209.7225 178.2783 14.39753476615578
SL-16 R/B               
1 23705U 95058B   26042.98041718  .00000227  00000+0  14023-3 0  9999
2 23705  71.0193 234.2301 0011995 168.7416 191.3977 14.15494672564211
SL-16 R/B               
1 24298U 96051B   26042.89125329  .00000110  00000+0  86247-4 0  9991
2 24298  70.7566 229.8443 0017306 184.4249 175.6720 14.12408253518001
ORBVIEW 2 (SEASTAR)     
1 24883U 97037A   26042.97644750  .00000378  00000+0  14764-3 0  9999
2 24883  98.8521 206.6135 0003066 124.0772 236.0704 14.35475036504785
